OBJECT_NAME,OBJECT_ID,EPOCH,MEAN_MOTION,ECCENTRICITY,INCLINATION,RA_OF_ASC_NODE,ARG_OF_PERICENTER,MEAN_ANOMALY,EPHEMERIS_TYPE,CLASSIFICATION_TYPE,NORAD_CAT_ID,ELEMENT_SET_NO,REV_AT_EPOCH,BSTAR,MEAN_MOTION_DOT,MEAN_MOTION_DDOT
INTELSAT 21 (IS-21),2012-045A,2026-06-04T01:18:30.968640,1.00270324,.00021572,0.0368,77.8866,7.0429,129.2018,0,U,38749,999,5039,0,-.273E-5,0
INTELSAT 23 (IS-23),2012-057A,2026-06-04T03:02:33.463680,1.00268539,.00002538,0.0141,303.1615,182.9975,119.0589,0,U,38867,999,4982,0,-.273E-5,0
FM-6,2013-058A,2026-06-03T16:28:30.707328,1.00260986,.00024704,0.0086,41.1711,106.4016,235.3713,0,U,39360,999,4593,0,-.2E-7,0
INTELSAT 30 (IS-30),2014-062A,2026-06-04T04:33:15.873984,1.00270463,.00010022,0.0274,48.4343,355.7263,181.7382,0,U,40271,999,666,0,-.139E-5,0
DIRECTV 14,2014-078B,2026-06-03T23:24:02.551392,1.00271680,.00002405,0.0107,331.1802,175.9193,357.1086,0,U,40333,999,4191,0,-.113E-5,0
DIRECTV 15,2015-026A,2026-06-04T05:31:13.701216,1.00268514,.00001354,0.0179,3.0157,51.4831,178.0899,0,U,40663,999,4033,0,-.9E-6,0
SKY MEXICO-1,2015-026B,2026-06-04T04:14:38.556096,1.00271041,.00023778,0.0176,1.2091,90.3229,145.9521,0,U,40664,999,4032,0,-.222E-5,0
INTELSAT 34 (IS-34),2015-039A,2026-06-04T03:01:56.023968,1.00270050,.00003312,0.0086,339.4745,48.0566,215.0374,0,U,40874,999,3950,0,-.273E-5,0
INTELSAT 31 (IS-31),2016-035A,2026-06-04T04:33:15.873984,1.00278557,.00007729,0.0134,267.8185,341.3318,336.7669,0,U,41581,999,3655,0,-.14E-5,0
INTELSAT 36 (IS-36),2016-053A,2026-06-04T03:37:19.019712,1.00270723,.00016554,0.0127,7.5098,336.2216,31.6951,0,U,41747,999,3582,0,-.12E-6,0
INTELSAT 32E (IS-32E),2017-007B,2026-06-04T04:48:01.231200,1.00271400,.00002385,0.0177,353.6661,357.4359,290.3674,0,U,41945,999,3409,0,-.257E-5,0
INTELSAT 35E (IS-35E),2017-041A,2026-06-04T04:50:30.991776,1.00276019,.00021076,0.0177,7.9005,64.0900,218.7942,0,U,42818,999,3268,0,-.226E-5,0
INTELSAT 37E (IS-37E),2017-059A,2026-06-04T03:12:36.388800,1.00272962,.00026844,0.0272,69.1938,15.6646,197.8938,0,U,42950,999,3193,0,-.128E-5,0
AZERSPACE 2 (IS-38),2018-074A,2026-06-04T00:05:16.883232,1.00272017,.00015774,0.0172,339.5833,99.3546,219.9434,0,U,43632,999,2831,0,.148E-5,0
HORIZONS-3E,2018-074B,2026-06-03T17:49:57.845568,1.00271837,.00006896,0.0147,152.8945,126.1807,49.6128,0,U,43633,999,2820,0,-.18E-6,0
AT&T T-16,2019-034A,2026-06-03T23:23:40.085664,1.00273791,.00003839,0.0267,66.2986,203.9799,232.2098,0,U,44333,999,2550,0,-.104E-5,0
INTELSAT 39 (IS-39),2019-049B,2026-06-04T01:52:44.831424,1.00271390,.00005989,0.0182,326.4973,4.9463,11.2279,0,U,44476,999,2499,0,.45E-6,0
GALAXY 30 (G-30),2020-056C,2026-06-03T23:16:48.245376,1.00272060,.00024573,0.0126,35.0814,36.0547,45.4718,0,U,46114,999,2116,0,.49E-6,0
GALAXY 33 (G-33),2022-128A,2026-06-04T00:57:01.447776,1.00273072,.00020363,0.0130,25.3311,50.3491,58.0837,0,U,54026,999,1361,0,.91E-6,0
GALAXY 34 (G-34),2022-128B,2026-06-03T23:15:40.853376,1.00271953,.00019136,0.0230,345.7774,104.4131,22.1612,0,U,54027,999,1378,0,0,0
GALAXY 31 (G-31),2022-153A,2026-06-04T05:49:38.673408,1.00272013,.00015053,0.0117,34.5374,38.7813,145.7848,0,U,54243,999,700,0,.25E-6,0
GALAXY 32 (G-32),2022-153B,2026-06-03T20:00:59.416128,1.00270822,.00023838,0.0097,353.7552,46.7034,61.0732,0,U,54244,999,1301,0,-.162E-5,0
GALAXY 35 (G-35),2022-170A,2026-06-04T04:22:38.760384,1.00272420,.00022482,0.0158,34.4261,43.2199,147.5532,0,U,54741,999,1276,0,-.15E-5,0
GALAXY 36 (G-36),2022-170B,2026-06-03T20:01:44.344128,1.00272722,.00029038,0.0175,242.0719,197.6370,24.0211,0,U,54742,999,1264,0,-.173E-5,0
GALAXY 37 (G-37),2023-112A,2026-06-04T05:49:38.673408,1.00273075,.00022573,0.0153,312.9979,123.4457,136.6679,0,U,57493,999,1041,0,.6E-6,0
